{
  "type": "FeatureCollection",
  "features": [
    {
      "type": "Feature",
      "properties": {
        "norad_id": 35052,
        "name": "IRIDIUM 33 DEB",
        "group": "iridium-33-debris",
        "lat": 69.92576738769729,
        "lon": -169.90499191315698,
        "alt_km": 748.0730599037151,
        "timestamp": "2025-12-13T08:49:16.077171+00:00",
        "meta_object_name": "IRIDIUM 33 DEB",
        "meta_object_id": "1997-051NY",
        "meta_epoch": "2025-12-12T08:56:28.870368",
        "meta_mean_motion": 14.38491759,
        "meta_eccentricity": 0.00136796,
        "meta_inclination": 86.3311,
        "meta_ra_of_asc_node": 20.6338,
        "meta_arg_of_pericenter": 86.1311,
        "meta_mean_anomaly": 274.145,
        "meta_ephemeris_type": 0,
        "meta_classification_type": "U",
        "meta_norad_cat_id": 35052,
        "meta_element_set_no": 999,
        "meta_rev_at_epoch": 87270,
        "meta_bstar": 0.0002781126,
        "meta_mean_motion_dot": 8.7e-06,
        "meta_mean_motion_ddot": 0,
        "tle_line1": "1 35052U 97051NY  25346.37255637  .00000870  00000+0  27811-3 0  9991",
        "tle_line2": "2 35052  86.3311  20.6338 0013679  86.1311 274.1450 14.38491759872705"
      },
      "geometry": {
        "type": "Point",
        "coordinates": [
          -169.90499191315698,
          69.92576738769729
        ]
      }
    },
    {
      "type": "Feature",
      "properties": {
        "norad_id": 35080,
        "name": "IRIDIUM 33 DEB",
        "group": "iridium-33-debris",
        "lat": 31.37033710597166,
        "lon": 54.39370916182403,
        "alt_km": 643.2538783893151,
        "timestamp": "2025-12-13T08:49:16.077181+00:00",
        "meta_object_name": "IRIDIUM 33 DEB",
        "meta_object_id": "1997-051PF",
        "meta_epoch": "2025-12-12T03:35:19.907808",
        "meta_mean_motion": 14.85960238,
        "meta_eccentricity": 0.00604695,
        "meta_inclination": 86.207,
        "meta_ra_of_asc_node": 52.6577,
        "meta_arg_of_pericenter": 181.932,
        "meta_mean_anomaly": 178.1681,
        "meta_ephemeris_type": 0,
        "meta_classification_type": "U",
        "meta_norad_cat_id": 35080,
        "meta_element_set_no": 999,
        "meta_rev_at_epoch": 69679,
        "meta_bstar": 0.0091733841,
        "meta_mean_motion_dot": 0.00083628,
        "meta_mean_motion_ddot": 0,
        "tle_line1": "1 35080U 97051PF  25346.14953597  .00083628  00000+0  91734-2 0  9993",
        "tle_line2": "2 35080  86.2070  52.6577 0060469 181.9320 178.1681 14.85960238696797"
      },
      "geometry": {
        "type": "Point",
        "coordinates": [
          54.39370916182403,
          31.37033710597166
        ]
      }
    },
    {
      "type": "Feature",
      "properties": {
        "norad_id": 35297,
        "name": "IRIDIUM 33 DEB",
        "group": "iridium-33-debris",
        "lat": 31.254430920430217,
        "lon": 64.68888782343325,
        "alt_km": 743.4509635059021,
        "timestamp": "2025-12-13T08:49:16.077192+00:00",
        "meta_object_name": "IRIDIUM 33 DEB",
        "meta_object_id": "1997-051PM",
        "meta_epoch": "2025-12-12T22:42:20.538720",
        "meta_mean_motion": 14.45159336,
        "meta_eccentricity": 0.00177378,
        "meta_inclination": 86.3854,
        "meta_ra_of_asc_node": 62.6701,
        "meta_arg_of_pericenter": 139.4968,
        "meta_mean_anomaly": 220.7558,
        "meta_ephemeris_type": 0,
        "meta_classification_type": "U",
        "meta_norad_cat_id": 35297,
        "meta_element_set_no": 999,
        "meta_rev_at_epoch": 70429,
        "meta_bstar": 0.0010165954,
        "meta_mean_motion_dot": 3.583e-05,
        "meta_mean_motion_ddot": 0,
        "tle_line1": "1 35297U 97051PM  25346.94607105  .00003583  00000+0  10166-2 0  9994",
        "tle_line2": "2 35297  86.3854  62.6701 0017737 139.4968 220.7558 14.45159336704291"
      },
      "geometry": {
        "type": "Point",
        "coordinates": [
          64.68888782343325,
          31.254430920430217
        ]
      }
    },
    {
      "type": "Feature",
      "properties": {
        "norad_id": 35299,
        "name": "IRIDIUM 33 DEB",
        "group": "iridium-33-debris",
        "lat": -45.59368442024134,
        "lon": 29.11322190223416,
        "alt_km": 797.2302913266212,
        "timestamp": "2025-12-13T08:49:16.077202+00:00",
        "meta_object_name": "IRIDIUM 33 DEB",
        "meta_object_id": "1997-051PP",
        "meta_epoch": "2025-12-12T09:58:22.179072",
        "meta_mean_motion": 14.40859086,
        "meta_eccentricity": 0.00589602,
        "meta_inclination": 86.2886,
        "meta_ra_of_asc_node": 33.3272,
        "meta_arg_of_pericenter": 103.4207,
        "meta_mean_anomaly": 316.2775,
        "meta_ephemeris_type": 0,
        "meta_classification_type": "U",
        "meta_norad_cat_id": 35299,
        "meta_element_set_no": 999,
        "meta_rev_at_epoch": 86326,
        "meta_bstar": 0.0012314468,
        "meta_mean_motion_dot": 4.048e-05,
        "meta_mean_motion_ddot": 0,
        "tle_line1": "1 35299U 97051PP  25346.41553448  .00004048  00000+0  12314-2 0  9992",
        "tle_line2": "2 35299  86.2886  33.3272 0058960 103.4207 316.2775 14.40859086863264"
      },
      "geometry": {
        "type": "Point",
        "coordinates": [
          29.11322190223416,
          -45.59368442024134
        ]
      }
    },
    {
      "type": "Feature",
      "properties": {
        "norad_id": 35480,
        "name": "IRIDIUM 33 DEB",
        "group": "iridium-33-debris",
        "lat": 74.45877204856517,
        "lon": 37.884188664511676,
        "alt_km": 709.2682806218645,
        "timestamp": "2025-12-13T08:49:16.077212+00:00",
        "meta_object_name": "IRIDIUM 33 DEB",
        "meta_object_id": "1997-051QA",
        "meta_epoch": "2025-12-09T19:59:43.135296",
        "meta_mean_motion": 14.49744632,
        "meta_eccentricity": 0.00159269,
        "meta_inclination": 86.357,
        "meta_ra_of_asc_node": 26.1722,
        "meta_arg_of_pericenter": 113.2937,
        "meta_mean_anomaly": 246.9945,
        "meta_ephemeris_type": 0,
        "meta_classification_type": "U",
        "meta_norad_cat_id": 35480,
        "meta_element_set_no": 999,
        "meta_rev_at_epoch": 86989,
        "meta_bstar": 0.0009193458,
        "meta_mean_motion_dot": 3.565e-05,
        "meta_mean_motion_ddot": 0,
        "tle_line1": "1 35480U 97051QA  25343.83313814  .00003565  00000+0  91935-3 0  9998",
        "tle_line2": "2 35480  86.3570  26.1722 0015926 113.2937 246.9945 14.49744632869893"
      },
      "geometry": {
        "type": "Point",
        "coordinates": [
          37.884188664511676,
          74.45877204856517
        ]
      }
    },
    {
      "type": "Feature",
      "properties": {
        "norad_id": 35484,
        "name": "IRIDIUM 33 DEB",
        "group": "iridium-33-debris",
        "lat": -10.00504526748531,
        "lon": -8.191503460588535,
        "alt_km": 586.2874293580671,
        "timestamp": "2025-12-13T08:49:16.077222+00:00",
        "meta_object_name": "IRIDIUM 33 DEB",
        "meta_object_id": "1997-051QE",
        "meta_epoch": "2025-12-12T07:13:32.804832",
        "meta_mean_motion": 14.98607005,
        "meta_eccentricity": 0.0023596,
        "meta_inclination": 86.3611,
        "meta_ra_of_asc_node": 352.9505,
        "meta_arg_of_pericenter": 126.5148,
        "meta_mean_anomaly": 233.8262,
        "meta_ephemeris_type": 0,
        "meta_classification_type": "U",
        "meta_norad_cat_id": 35484,
        "meta_element_set_no": 999,
        "meta_rev_at_epoch": 62009,
        "meta_bstar": 0.0041273462,
        "meta_mean_motion_dot": 0.00050078,
        "meta_mean_motion_ddot": 0,
        "tle_line1": "1 35484U 97051QE  25346.30107413  .00050078  00000+0  41273-2 0  9993",
        "tle_line2": "2 35484  86.3611 352.9505 0023596 126.5148 233.8262 14.98607005620095"
      },
      "geometry": {
        "type": "Point",
        "coordinates": [
          -8.191503460588535,
          -10.00504526748531
        ]
      }
    },
    {
      "type": "Feature",
      "properties": {
        "norad_id": 35488,
        "name": "IRIDIUM 33 DEB",
        "group": "iridium-33-debris",
        "lat": 64.28148266666247,
        "lon": -51.74202307701617,
        "alt_km": 594.3297487632244,
        "timestamp": "2025-12-13T08:49:16.077233+00:00",
        "meta_object_name": "IRIDIUM 33 DEB",
        "meta_object_id": "1997-051QJ",
        "meta_epoch": "2025-12-12T14:43:12.684864",
        "meta_mean_motion": 14.83053941,
        "meta_eccentricity": 0.00298615,
        "meta_inclination": 86.3248,
        "meta_ra_of_asc_node": 300.9369,
        "meta_arg_of_pericenter": 43.3071,
        "meta_mean_anomaly": 317.049,
        "meta_ephemeris_type": 0,
        "meta_classification_type": "U",
        "meta_norad_cat_id": 35488,
        "meta_element_set_no": 999,
        "meta_rev_at_epoch": 88264,
        "meta_bstar": 0.0023232859,
        "meta_mean_motion_dot": 0.00019104,
        "meta_mean_motion_ddot": 0,
        "tle_line1": "1 35488U 97051QJ  25346.61334126  .00019104  00000+0  23233-2 0  9995",
        "tle_line2": "2 35488  86.3248 300.9369 0029861  43.3071 317.0490 14.83053941882645"
      },
      "geometry": {
        "type": "Point",
        "coordinates": [
          -51.74202307701617,
          64.28148266666247
        ]
      }
    }
  ]
}